{"type":"FeatureCollection","features":[{"type":"Feature","geometry":{"type":"MultiPolygon","coordinates":[[[[-60.821,9.138],[-60.941,9.106],[-60.907,9.179],[-60.782,9.218],[-60.736,9.203],[-60.821,9.138]]],[[[-63.849,11.131],[-63.817,11],[-63.918,10.888],[-64.055,10.884],[-64.161,10.959],[-64.219,10.942],[-64.402,10.982],[-64.349,11.052],[-64.214,11.086],[-64.113,11.006],[-64.028,11.002],[-64.007,11.068],[-63.893,11.167],[-63.849,11.131]]],[[[-65.213,10.906],[-65.266,10.884],[-65.415,10.938],[-65.383,10.974],[-65.302,10.974],[-65.213,10.906]]],[[[-60.998,8.867],[-61.06,8.847],[-61.069,8.947],[-60.916,9.07],[-60.849,8.996],[-60.861,8.95],[-60.998,8.867]]],[[[-60.018,8.549],[-59.832,8.306],[-59.849,8.249],[-59.965,8.192],[-60.032,8.054],[-60.178,7.994],[-60.381,7.828],[-60.514,7.813],[-60.61,7.648],[-60.719,7.536],[-60.607,7.321],[-60.633,7.211],[-60.583,7.156],[-60.345,7.15],[-60.322,7.092],[-60.352,7.003],[-60.395,6.945],[-60.718,6.768],[-60.873,6.787],[-60.938,6.733],[-61.146,6.695],[-61.204,6.588],[-61.151,6.447],[-61.129,6.214],[-61.391,5.939],[-60.742,5.202],[-60.672,5.164],[-60.604,4.995],[-60.628,4.893],[-60.742,4.774],[-60.906,4.687],[-61.003,4.535],[-61.102,4.505],[-61.28,4.517],[-61.368,4.433],[-61.479,4.402],[-61.554,4.288],[-62.153,4.098],[-62.411,4.157],[-62.61,4.042],[-62.712,4.018],[-62.765,3.673],[-62.857,3.593],[-62.969,3.594],[-63.339,3.944],[-63.527,3.894],[-63.653,3.941],[-64.021,3.929],[-64.192,4.127],[-64.576,4.14],[-64.722,4.274],[-64.789,4.276],[-64.818,4.232],[-64.669,4.012],[-64.221,3.587],[-64.219,3.205],[-64.038,2.802],[-64.009,2.672],[-64.047,2.502],[-63.924,2.452],[-63.389,2.412],[-63.394,2.223],[-63.464,2.136],[-63.57,2.121],[-63.844,1.977],[-64.008,1.932],[-64.115,1.619],[-64.205,1.529],[-64.304,1.455],[-64.486,1.453],[-64.732,1.253],[-64.818,1.257],[-65.027,1.158],[-65.361,0.869],[-65.473,0.691],[-65.556,0.688],[-65.523,0.843],[-65.566,0.926],[-65.645,0.97],[-65.718,0.978],[-65.811,0.937],[-66.06,0.785],[-66.302,0.752],[-66.429,0.822],[-66.876,1.223],[-66.884,1.358],[-66.988,1.68],[-67.215,2.275],[-67.211,2.39],[-67.568,2.69],[-67.619,2.794],[-67.766,2.833],[-67.859,2.794],[-67.835,2.893],[-67.354,3.323],[-67.311,3.416],[-67.499,3.691],[-67.603,3.769],[-67.662,3.864],[-67.783,4.198],[-67.814,4.455],[-67.855,4.507],[-67.804,5.133],[-67.825,5.27],[-67.788,5.375],[-67.695,5.448],[-67.642,5.559],[-67.631,5.709],[-67.575,5.833],[-67.474,5.93],[-67.439,6.026],[-67.482,6.18],[-67.568,6.242],[-67.859,6.29],[-67.939,6.242],[-68.472,6.157],[-68.736,6.157],[-68.937,6.198],[-69.09,6.184],[-69.268,6.1],[-69.357,6.148],[-69.427,6.124],[-70.129,6.954],[-70.388,6.973],[-70.737,7.09],[-71.013,6.994],[-71.129,6.987],[-71.621,7.033],[-71.893,6.99],[-72.007,7.033],[-72.084,7.097],[-72.208,7.37],[-72.395,7.415],[-72.472,7.524],[-72.446,7.966],[-72.358,8.087],[-72.39,8.287],[-72.417,8.382],[-72.665,8.628],[-72.796,9.109],[-72.96,9.135],[-73.009,9.24],[-73.058,9.26],[-73.193,9.194],[-73.337,9.168],[-73.366,9.194],[-73.007,9.789],[-72.869,10.491],[-72.69,10.836],[-72.446,11.114],[-72.248,11.196],[-71.958,11.666],[-71.536,11.774],[-71.32,11.862],[-71.415,11.755],[-71.488,11.719],[-71.869,11.627],[-71.957,11.57],[-71.947,11.414],[-71.835,11.19],[-71.642,11.014],[-71.731,10.995],[-71.69,10.835],[-71.598,10.726],[-71.594,10.657],[-71.665,10.444],[-71.956,10.108],[-72.113,9.816],[-71.993,9.642],[-71.976,9.553],[-71.761,9.336],[-71.781,9.25],[-71.687,9.073],[-71.537,9.048],[-71.241,9.16],[-71.086,9.348],[-71.053,9.706],[-71.082,9.833],[-71.262,10.144],[-71.387,10.264],[-71.494,10.533],[-71.545,10.779],[-71.461,10.836],[-71.47,10.964],[-71.264,11],[-70.821,11.208],[-70.546,11.261],[-70.233,11.373],[-70.097,11.52],[-70.049,11.53],[-69.885,11.444],[-69.805,11.474],[-69.773,11.541],[-69.817,11.672],[-70.193,11.625],[-70.287,11.886],[-70.203,12.098],[-70.004,12.178],[-69.86,12.054],[-69.762,11.676],[-69.712,11.564],[-69.632,11.48],[-69.233,11.518],[-68.828,11.432],[-68.399,11.161],[-68.272,10.88],[-68.325,10.809],[-68.296,10.689],[-68.234,10.569],[-68.14,10.493],[-67.872,10.472],[-66.989,10.611],[-66.247,10.632],[-66.106,10.575],[-66.09,10.473],[-65.852,10.258],[-65.656,10.228],[-65.129,10.07],[-64.85,10.098],[-64.188,10.458],[-63.834,10.449],[-63.732,10.503],[-63.863,10.558],[-64.158,10.579],[-64.248,10.543],[-64.298,10.635],[-63.873,10.664],[-63.497,10.643],[-63.19,10.709],[-62.947,10.707],[-62.702,10.75],[-62.242,10.7],[-61.879,10.741],[-61.921,10.681],[-62.233,10.634],[-62.38,10.547],[-62.694,10.563],[-62.914,10.531],[-62.843,10.507],[-62.843,10.418],[-62.781,10.399],[-62.686,10.29],[-62.662,10.199],[-62.741,10.056],[-62.651,10.071],[-62.6,10.117],[-62.6,10.217],[-62.55,10.2],[-62.32,9.783],[-62.281,9.793],[-62.221,9.883],[-62.153,9.822],[-62.155,9.979],[-62.077,9.975],[-61.909,9.87],[-61.736,9.631],[-61.766,9.814],[-61.625,9.816],[-61.589,9.895],[-61.309,9.633],[-61.013,9.556],[-60.792,9.361],[-60.841,9.264],[-60.971,9.215],[-61.023,9.155],[-61.122,8.843],[-61.247,8.6],[-61.619,8.597],[-61.304,8.41],[-61.194,8.488],[-61.036,8.493],[-60.801,8.592],[-60.481,8.547],[-60.34,8.629],[-60.167,8.617],[-60.018,8.549]]]]},"properties":{"name":"Venezuela","name_pt":"Venezuela","iso":"VE"}},{"type":"Feature","geometry":{"type":"MultiPolygon","coordinates":[[[[-60.756,11.179],[-60.811,11.169],[-60.804,11.208],[-60.709,11.277],[-60.525,11.325],[-60.546,11.264],[-60.756,11.179]]],[[[-61.012,10.134],[-61.174,10.078],[-61.906,10.069],[-61.661,10.192],[-61.633,10.243],[-61.499,10.269],[-61.478,10.603],[-61.651,10.718],[-61.37,10.797],[-60.918,10.84],[-61.034,10.67],[-61.038,10.482],[-60.968,10.323],[-61.012,10.134]]]]},"properties":{"name":"Trinidad and Tobago","name_pt":"Trinidad e Tobago","iso":"TT"}},{"type":"Feature","geometry":{"type":"Polygon","coordinates":[[[-54.156,5.359],[-54.332,5.187],[-54.452,5.013],[-54.48,4.837],[-54.426,4.583],[-54.45,4.485],[-54.398,4.202],[-54.342,4.14],[-54.351,4.054],[-53.99,3.59],[-54.01,3.449],[-54.203,3.138],[-54.171,2.994],[-54.196,2.818],[-54.402,2.462],[-54.486,2.416],[-54.536,2.343],[-54.662,2.328],[-54.722,2.442],[-54.876,2.45],[-54.979,2.598],[-55.07,2.548],[-55.188,2.548],[-55.344,2.489],[-55.385,2.441],[-55.731,2.406],[-55.957,2.52],[-55.994,2.498],[-56.02,2.393],[-56.129,2.3],[-56.138,2.259],[-56.074,2.237],[-55.915,2.04],[-55.93,1.887],[-55.963,1.857],[-56.02,1.842],[-56.453,1.932],[-56.563,2.005],[-56.704,2.036],[-56.931,2.395],[-57.105,2.768],[-57.197,2.853],[-57.304,3.377],[-57.55,3.353],[-57.647,3.395],[-57.649,3.517],[-57.833,3.676],[-57.908,3.857],[-58.032,4.002],[-58.054,4.172],[-57.95,4.35],[-57.846,4.668],[-57.917,4.82],[-57.881,4.881],[-57.711,4.991],[-57.412,5.005],[-57.306,5.05],[-57.31,5.106],[-57.207,5.214],[-57.28,5.247],[-57.319,5.335],[-57.248,5.485],[-57.195,5.548],[-57.182,5.529],[-57.057,5.939],[-56.97,5.993],[-56.236,5.885],[-55.94,5.795],[-55.898,5.699],[-55.91,5.893],[-55.828,5.962],[-55.648,5.986],[-55.379,5.953],[-55.148,5.993],[-54.834,5.988],[-54.356,5.91],[-54.054,5.808],[-54.046,5.609],[-54.156,5.359]]]},"properties":{"name":"Suriname","name_pt":"Suriname","iso":"SR"}},{"type":"Feature","geometry":{"type":"Polygon","coordinates":[[[-69.966,-4.236],[-69.972,-4.301],[-70.053,-4.333],[-70.129,-4.287],[-70.239,-4.301],[-70.405,-4.15],[-70.8,-4.173],[-70.974,-4.35],[-71.521,-4.47],[-71.845,-4.504],[-72.353,-4.786],[-72.699,-5.067],[-72.887,-5.123],[-72.98,-5.635],[-73.236,-6.098],[-73.135,-6.344],[-73.137,-6.466],[-73.24,-6.564],[-73.325,-6.575],[-73.5,-6.679],[-73.758,-6.906],[-73.805,-7.08],[-73.72,-7.309],[-73.964,-7.379],[-73.958,-7.507],[-74.002,-7.556],[-73.822,-7.739],[-73.72,-7.783],[-73.715,-7.829],[-73.776,-7.936],[-73.645,-8.073],[-73.549,-8.346],[-73.36,-8.479],[-73.357,-8.567],[-73.302,-8.654],[-73.203,-8.719],[-72.974,-8.993],[-72.97,-9.12],[-73.209,-9.411],[-72.814,-9.41],[-72.379,-9.51],[-72.318,-9.557],[-72.26,-9.774],[-72.173,-9.844],[-72.182,-10.004],[-71.608,-10.006],[-71.238,-9.966],[-70.637,-9.478],[-70.541,-9.438],[-70.592,-9.543],[-70.567,-9.705],[-70.637,-9.824],[-70.642,-11.01],[-70.533,-10.947],[-70.392,-11.059],[-70.29,-11.064],[-69.96,-10.93],[-69.579,-10.952],[-68.685,-12.502],[-68.763,-12.608],[-68.759,-12.687],[-68.868,-12.755],[-68.979,-12.88],[-68.983,-13.496],[-69.074,-13.683],[-68.974,-13.976],[-68.871,-14.17],[-69.004,-14.265],[-69.013,-14.377],[-69.235,-14.597],[-69.276,-14.746],[-69.359,-14.795],[-69.375,-14.963],[-69.172,-15.237],[-69.302,-15.399],[-69.421,-15.641],[-69.218,-16.149],[-69.134,-16.222],[-68.913,-16.262],[-68.843,-16.338],[-69.033,-16.476],[-69.021,-16.642],[-69.2,-16.768],[-69.438,-17.088],[-69.625,-17.2],[-69.646,-17.249],[-69.522,-17.389],[-69.511,-17.506],[-69.685,-17.65],[-69.806,-17.665],[-69.852,-17.704],[-69.803,-17.99],[-69.926,-18.206],[-70.184,-18.325],[-70.418,-18.346],[-70.942,-17.932],[-71.337,-17.683],[-71.399,-17.422],[-71.532,-17.294],[-71.774,-17.199],[-72.111,-17.003],[-72.468,-16.708],[-72.794,-16.615],[-73.4,-16.304],[-73.728,-16.202],[-74.147,-15.912],[-74.373,-15.834],[-74.555,-15.699],[-75.104,-15.412],[-75.534,-14.899],[-75.934,-14.634],[-76.175,-14.227],[-76.289,-14.133],[-76.297,-13.948],[-76.376,-13.863],[-76.259,-13.803],[-76.184,-13.515],[-76.224,-13.371],[-76.502,-12.984],[-76.555,-12.823],[-76.758,-12.527],[-76.832,-12.349],[-76.994,-12.219],[-77.063,-12.107],[-77.153,-12.06],[-77.22,-11.663],[-77.31,-11.532],[-77.633,-11.288],[-77.664,-11.022],[-77.736,-10.837],[-78.186,-10.089],[-78.446,-9.371],[-78.665,-8.971],[-78.755,-8.74],[-78.762,-8.617],[-78.925,-8.405],[-79.012,-8.21],[-79.377,-7.836],[-79.589,-7.419],[-79.618,-7.296],[-79.995,-6.769],[-80.11,-6.65],[-80.812,-6.282],[-81.142,-6.057],[-81.181,-5.942],[-81.164,-5.875],[-81.092,-5.812],[-80.992,-5.861],[-80.931,-5.841],[-80.883,-5.759],[-80.882,-5.635],[-80.943,-5.475],[-81.168,-5.167],[-81.108,-5.028],[-81.337,-4.67],[-81.283,-4.322],[-81.232,-4.234],[-80.892,-3.882],[-80.799,-3.731],[-80.325,-3.388],[-80.274,-3.425],[-80.221,-3.613],[-80.229,-3.739],[-80.179,-3.878],[-80.303,-4.005],[-80.437,-3.979],[-80.49,-4.01],[-80.51,-4.07],[-80.488,-4.166],[-80.454,-4.205],[-80.353,-4.208],[-80.488,-4.394],[-80.479,-4.43],[-80.383,-4.464],[-80.293,-4.417],[-80.197,-4.311],[-80.14,-4.296],[-79.797,-4.476],[-79.639,-4.455],[-79.516,-4.539],[-79.502,-4.671],[-79.331,-4.928],[-79.076,-4.991],[-79.033,-4.969],[-78.975,-4.873],[-78.919,-4.858],[-78.908,-4.714],[-78.686,-4.562],[-78.653,-4.458],[-78.679,-4.326],[-78.55,-3.987],[-78.42,-3.777],[-78.345,-3.397],[-78.284,-3.399],[-78.226,-3.489],[-78.158,-3.465],[-78.183,-3.35],[-77.861,-2.982],[-76.679,-2.563],[-76.09,-2.133],[-75.571,-1.531],[-75.408,-0.924],[-75.348,-0.967],[-75.25,-0.952],[-75.284,-0.707],[-75.259,-0.59],[-75.263,-0.555],[-75.425,-0.409],[-75.491,-0.248],[-75.632,-0.158],[-75.626,-0.123],[-75.476,-0.157],[-75.34,-0.142],[-75.225,-0.042],[-75.138,-0.05],[-74.945,-0.188],[-74.802,-0.2],[-74.755,-0.299],[-74.616,-0.37],[-74.418,-0.581],[-74.334,-0.851],[-74.246,-0.971],[-74.054,-1.029],[-73.863,-1.197],[-73.664,-1.249],[-73.521,-1.45],[-73.494,-1.537],[-73.525,-1.639],[-73.496,-1.693],[-73.35,-1.784],[-73.224,-1.788],[-73.197,-1.83],[-73.127,-2.081],[-73.173,-2.208],[-73.154,-2.278],[-72.99,-2.34],[-72.941,-2.394],[-72.811,-2.405],[-72.625,-2.352],[-72.396,-2.429],[-72.218,-2.4],[-72.054,-2.325],[-71.984,-2.327],[-71.753,-2.153],[-71.559,-2.224],[-71.397,-2.334],[-71.196,-2.313],[-71.113,-2.245],[-70.969,-2.207],[-70.705,-2.342],[-70.648,-2.406],[-70.096,-2.658],[-70.065,-2.702],[-70.074,-2.75],[-70.735,-3.782],[-70.53,-3.866],[-70.34,-3.814],[-70.24,-3.883],[-70.168,-4.05],[-69.966,-4.236]]]},"properties":{"name":"Peru","name_pt":"Peru","iso":"PE"}},{"type":"Feature","geometry":{"type":"MultiPolygon","coordinates":[[[[-77.374,8.658],[-77.479,8.498],[-77.407,8.427],[-77.196,7.972],[-77.346,7.837],[-77.351,7.706],[-77.538,7.566],[-77.587,7.543],[-77.706,7.691],[-77.762,7.699],[-77.744,7.537],[-77.765,7.484],[-77.828,7.443],[-77.901,7.229],[-78.17,7.544],[-78.378,7.9],[-78.422,8.061],[-78.287,8.092],[-78.255,8.139],[-78.281,8.248],[-78.142,8.386],[-78.048,8.285],[-77.761,8.133],[-78.013,8.325],[-78.099,8.497],[-78.223,8.397],[-78.256,8.454],[-78.35,8.46],[-78.399,8.506],[-78.369,8.405],[-78.379,8.359],[-78.41,8.355],[-78.469,8.447],[-78.514,8.628],[-79.086,8.997],[-79.247,9.02],[-79.442,9.006],[-79.507,8.97],[-79.687,8.851],[-79.816,8.639],[-79.75,8.596],[-80.126,8.35],[-80.369,8.289],[-80.459,8.214],[-80.458,8.077],[-80.075,7.667],[-80.011,7.5],[-80.111,7.433],[-80.287,7.426],[-80.439,7.275],[-80.667,7.226],[-80.846,7.22],[-80.901,7.277],[-80.915,7.438],[-81.035,7.711],[-81.064,7.9],[-81.158,7.854],[-81.195,7.668],[-81.219,7.621],[-81.268,7.625],[-81.504,7.721],[-81.728,8.138],[-81.973,8.215],[-82.097,8.223],[-82.16,8.195],[-82.224,8.23],[-82.235,8.311],[-82.365,8.275],[-82.68,8.322],[-82.781,8.304],[-82.866,8.246],[-82.854,8.1],[-82.879,8.071],[-82.913,8.2],[-83.027,8.338],[-82.862,8.454],[-82.856,8.635],[-82.917,8.74],[-82.882,8.805],[-82.728,8.916],[-82.783,8.99],[-82.881,9.056],[-82.94,9.06],[-82.94,9.449],[-82.801,9.592],[-82.644,9.506],[-82.564,9.577],[-82.371,9.429],[-82.34,9.209],[-82.272,9.191],[-82.205,9.215],[-82.188,9.192],[-82.235,9.142],[-82.244,9.031],[-82.078,8.935],[-81.78,8.957],[-81.9,9.111],[-81.894,9.14],[-81.712,9.019],[-81.546,8.827],[-81.355,8.781],[-81.063,8.813],[-80.839,8.887],[-80.676,9.022],[-80.547,9.082],[-80.127,9.21],[-79.978,9.344],[-79.855,9.378],[-79.577,9.598],[-79.112,9.537],[-79.017,9.51],[-78.932,9.428],[-78.504,9.406],[-78.083,9.236],[-77.831,9.068],[-77.697,8.889],[-77.374,8.658]]],[[[-78.898,8.274],[-78.918,8.232],[-78.965,8.326],[-78.961,8.436],[-78.883,8.46],[-78.856,8.448],[-78.839,8.348],[-78.898,8.274]]],[[[-81.603,7.333],[-81.77,7.37],[-81.852,7.453],[-81.812,7.592],[-81.729,7.621],[-81.671,7.523],[-81.71,7.486],[-81.695,7.425],[-81.613,7.38],[-81.603,7.333]]],[[[-82.233,9.381],[-82.244,9.334],[-82.322,9.418],[-82.259,9.43],[-82.233,9.381]]],[[[-79.065,8.254],[-79.11,8.21],[-79.128,8.252],[-79.096,8.295],[-79.065,8.254]]]]},"properties":{"name":"Panama","name_pt":"Panamá","iso":"PA"}},{"type":"Feature","geometry":{"type":"Polygon","coordinates":[[[-60.742,5.202],[-61.391,5.939],[-61.129,6.214],[-61.151,6.447],[-61.204,6.588],[-61.146,6.695],[-60.938,6.733],[-60.873,6.787],[-60.718,6.768],[-60.395,6.945],[-60.352,7.003],[-60.322,7.092],[-60.345,7.15],[-60.583,7.156],[-60.633,7.211],[-60.607,7.321],[-60.719,7.536],[-60.61,7.648],[-60.514,7.813],[-60.381,7.828],[-60.178,7.994],[-60.032,8.054],[-59.965,8.192],[-59.849,8.249],[-59.832,8.306],[-60.018,8.549],[-59.837,8.374],[-59.757,8.34],[-59.739,8.38],[-59.666,8.363],[-59.2,8.075],[-58.812,7.736],[-58.511,7.398],[-58.477,7.326],[-58.481,7.038],[-58.583,6.844],[-58.613,6.503],[-58.673,6.391],[-58.594,6.452],[-58.569,6.627],[-58.415,6.851],[-58.298,6.879],[-57.983,6.786],[-57.608,6.45],[-57.54,6.332],[-57.344,6.272],[-57.228,6.178],[-57.19,6.097],[-57.167,5.885],[-57.195,5.548],[-57.319,5.335],[-57.28,5.247],[-57.218,5.232],[-57.21,5.195],[-57.31,5.106],[-57.331,5.02],[-57.711,4.991],[-57.881,4.881],[-57.917,4.82],[-57.846,4.668],[-57.95,4.35],[-58.054,4.172],[-58.054,4.102],[-58.032,4.002],[-57.908,3.857],[-57.833,3.676],[-57.649,3.517],[-57.647,3.395],[-57.55,3.353],[-57.304,3.377],[-57.197,2.853],[-57.105,2.768],[-56.931,2.395],[-56.704,2.036],[-56.563,2.005],[-56.483,1.942],[-56.564,1.907],[-56.616,1.923],[-56.837,1.881],[-57.01,1.921],[-57.119,2.014],[-57.317,1.963],[-57.413,1.909],[-57.546,1.726],[-57.983,1.648],[-58.035,1.52],[-58.142,1.517],[-58.341,1.588],[-58.396,1.482],[-58.506,1.439],[-58.487,1.348],[-58.512,1.285],[-58.685,1.281],[-58.822,1.201],[-58.862,1.204],[-58.969,1.305],[-59.231,1.376],[-59.536,1.7],[-59.667,1.746],[-59.669,1.842],[-59.756,1.901],[-59.755,2.274],[-59.89,2.363],[-59.994,2.69],[-59.972,2.99],[-59.831,3.349],[-59.854,3.587],[-59.679,3.7],[-59.551,3.934],[-59.739,4.227],[-59.703,4.381],[-59.833,4.476],[-60.149,4.533],[-60.032,4.741],[-59.991,5.083],[-60.078,5.144],[-60.142,5.239],[-60.242,5.258],[-60.335,5.199],[-60.46,5.188],[-60.651,5.221],[-60.742,5.202]]]},"properties":{"name":"Guyana","name_pt":"Guiana","iso":"GY"}},{"type":"Feature","geometry":{"type":"MultiPolygon","coordinates":[[[[-54.616,2.327],[-54.536,2.343],[-54.486,2.416],[-54.402,2.462],[-54.196,2.818],[-54.171,2.994],[-54.203,3.138],[-54.01,3.449],[-53.99,3.59],[-54.351,4.054],[-54.342,4.14],[-54.398,4.202],[-54.45,4.485],[-54.426,4.583],[-54.471,4.749],[-54.473,4.915],[-54.452,5.013],[-54.332,5.187],[-54.085,5.412],[-53.99,5.676],[-53.92,5.769],[-53.847,5.782],[-53.454,5.563],[-53.27,5.543],[-52.899,5.425],[-52.765,5.273],[-52.454,5.021],[-52.291,4.942],[-52.325,4.771],[-52.22,4.863],[-52.058,4.717],[-51.962,4.514],[-52.003,4.352],[-51.928,4.436],[-51.88,4.634],[-51.828,4.636],[-51.666,4.229],[-51.653,4.061],[-51.767,3.993],[-51.827,3.87],[-51.991,3.702],[-52.163,3.365],[-52.328,3.182],[-52.418,2.904],[-52.555,2.648],[-52.559,2.573],[-52.701,2.364],[-52.87,2.267],[-52.903,2.212],[-53.01,2.182],[-53.23,2.205],[-53.334,2.34],[-53.509,2.253],[-53.735,2.309],[-53.768,2.355],[-54.13,2.121],[-54.433,2.208],[-54.616,2.327]]]]},"properties":{"name":"France","name_pt":"França","iso":"-99"}},{"type":"Feature","geometry":{"type":"MultiPolygon","coordinates":[[[[-75.284,-0.107],[-75.34,-0.142],[-75.476,-0.157],[-75.626,-0.123],[-75.632,-0.158],[-75.491,-0.248],[-75.425,-0.409],[-75.263,-0.555],[-75.259,-0.59],[-75.284,-0.707],[-75.25,-0.952],[-75.348,-0.967],[-75.408,-0.924],[-75.571,-1.531],[-76.09,-2.133],[-76.679,-2.563],[-77.861,-2.982],[-78.183,-3.35],[-78.158,-3.465],[-78.226,-3.489],[-78.284,-3.399],[-78.345,-3.397],[-78.42,-3.777],[-78.55,-3.987],[-78.679,-4.326],[-78.653,-4.458],[-78.686,-4.562],[-78.908,-4.714],[-78.919,-4.858],[-78.975,-4.873],[-79.033,-4.969],[-79.076,-4.991],[-79.331,-4.928],[-79.502,-4.671],[-79.516,-4.539],[-79.639,-4.455],[-79.797,-4.476],[-80.14,-4.296],[-80.197,-4.311],[-80.293,-4.417],[-80.383,-4.464],[-80.479,-4.43],[-80.488,-4.394],[-80.353,-4.208],[-80.454,-4.205],[-80.488,-4.166],[-80.51,-4.07],[-80.49,-4.01],[-80.437,-3.979],[-80.303,-4.005],[-80.179,-3.878],[-80.229,-3.739],[-80.221,-3.613],[-80.274,-3.425],[-80.325,-3.388],[-80.16,-3.324],[-79.963,-3.158],[-79.73,-2.579],[-79.746,-2.485],[-79.822,-2.357],[-79.842,-2.067],[-79.893,-2.146],[-79.88,-2.424],[-79.926,-2.549],[-79.989,-2.579],[-80.03,-2.557],[-80.007,-2.354],[-80.285,-2.707],[-80.45,-2.626],[-80.685,-2.397],[-80.839,-2.349],[-80.932,-2.269],[-80.963,-2.189],[-80.77,-2.077],[-80.761,-1.935],[-80.763,-1.823],[-80.835,-1.632],[-80.801,-1.383],[-80.902,-1.079],[-80.841,-0.975],[-80.554,-0.848],[-80.455,-0.585],[-80.282,-0.621],[-80.385,-0.584],[-80.482,-0.368],[-80.321,-0.166],[-80.133,-0.006],[-80.046,0.155],[-80.025,0.41],[-80.088,0.785],[-80.036,0.835],[-79.904,0.86],[-79.741,0.98],[-79.613,0.971],[-79.465,1.06],[-78.9,1.206],[-78.827,1.296],[-78.86,1.455],[-78.682,1.283],[-78.181,0.969],[-77.83,0.825],[-77.703,0.838],[-77.649,0.724],[-77.468,0.637],[-77.396,0.394],[-77.114,0.355],[-76.829,0.248],[-76.768,0.242],[-76.729,0.272],[-76.495,0.235],[-76.427,0.261],[-76.388,0.405],[-76.311,0.448],[-76.271,0.439],[-76.068,0.346],[-75.88,0.151],[-75.777,0.089],[-75.617,0.063],[-75.464,-0.038],[-75.284,-0.107]]],[[[-80.132,-2.973],[-80.151,-3.012],[-80.273,-2.996],[-80.224,-2.753],[-80.081,-2.669],[-79.997,-2.674],[-79.909,-2.726],[-80.013,-2.82],[-80.093,-2.846],[-80.132,-2.973]]],[[[-78.909,1.253],[-78.966,1.245],[-78.992,1.293],[-78.9,1.36],[-78.909,1.253]]]]},"properties":{"name":"Ecuador","name_pt":"Equador","iso":"EC"}},{"type":"Feature","geometry":{"type":"MultiPolygon","coordinates":[[[[-71.32,11.862],[-71.536,11.774],[-71.958,11.666],[-72.248,11.196],[-72.446,11.114],[-72.69,10.836],[-72.869,10.491],[-73.007,9.789],[-73.366,9.194],[-73.337,9.168],[-73.193,9.194],[-73.058,9.26],[-73.009,9.24],[-72.96,9.135],[-72.796,9.109],[-72.665,8.628],[-72.417,8.382],[-72.39,8.287],[-72.358,8.087],[-72.446,7.966],[-72.472,7.524],[-72.395,7.415],[-72.208,7.37],[-72.084,7.097],[-72.007,7.033],[-71.893,6.99],[-71.621,7.033],[-71.129,6.987],[-71.013,6.994],[-70.737,7.09],[-70.388,6.973],[-70.129,6.954],[-69.427,6.124],[-69.357,6.148],[-69.268,6.1],[-69.09,6.184],[-68.937,6.198],[-68.736,6.157],[-68.472,6.157],[-67.939,6.242],[-67.859,6.29],[-67.568,6.242],[-67.482,6.18],[-67.439,6.026],[-67.474,5.93],[-67.575,5.833],[-67.631,5.709],[-67.642,5.559],[-67.695,5.448],[-67.788,5.375],[-67.825,5.27],[-67.804,5.133],[-67.855,4.507],[-67.814,4.455],[-67.783,4.198],[-67.662,3.864],[-67.603,3.769],[-67.499,3.691],[-67.311,3.416],[-67.354,3.323],[-67.835,2.893],[-67.859,2.794],[-67.766,2.833],[-67.619,2.794],[-67.568,2.69],[-67.211,2.39],[-67.215,2.275],[-67.114,2.051],[-67.131,2],[-66.884,1.358],[-66.876,1.223],[-67.082,1.185],[-67.09,1.616],[-67.119,1.704],[-67.352,2.086],[-67.4,2.117],[-67.556,2.073],[-67.815,1.79],[-67.936,1.748],[-68.033,1.788],[-68.13,1.956],[-68.194,1.987],[-68.256,1.846],[-68.177,1.72],[-69.32,1.721],[-69.543,1.773],[-69.849,1.709],[-69.852,1.06],[-69.312,1.05],[-69.163,0.864],[-69.177,0.713],[-69.153,0.659],[-69.283,0.627],[-69.472,0.73],[-69.807,0.607],[-70.054,0.579],[-70.071,-0.139],[-69.923,-0.317],[-69.634,-0.509],[-69.592,-0.639],[-69.612,-0.763],[-69.544,-0.917],[-69.449,-0.999],[-69.449,-1.092],[-69.4,-1.195],[-69.966,-4.236],[-70.168,-4.05],[-70.24,-3.883],[-70.34,-3.814],[-70.53,-3.866],[-70.735,-3.782],[-70.074,-2.75],[-70.065,-2.702],[-70.096,-2.658],[-70.648,-2.406],[-70.705,-2.342],[-70.969,-2.207],[-71.113,-2.245],[-71.196,-2.313],[-71.397,-2.334],[-71.559,-2.224],[-71.753,-2.153],[-71.984,-2.327],[-72.054,-2.325],[-72.218,-2.4],[-72.396,-2.429],[-72.625,-2.352],[-72.811,-2.405],[-72.941,-2.394],[-72.99,-2.34],[-73.154,-2.278],[-73.173,-2.208],[-73.127,-2.081],[-73.197,-1.83],[-73.224,-1.788],[-73.35,-1.784],[-73.496,-1.693],[-73.525,-1.639],[-73.494,-1.537],[-73.521,-1.45],[-73.664,-1.249],[-73.863,-1.197],[-74.054,-1.029],[-74.246,-0.971],[-74.334,-0.851],[-74.418,-0.581],[-74.616,-0.37],[-74.755,-0.299],[-74.802,-0.2],[-74.945,-0.188],[-75.138,-0.05],[-75.225,-0.042],[-75.284,-0.107],[-75.464,-0.038],[-75.617,0.063],[-75.777,0.089],[-75.88,0.151],[-76.068,0.346],[-76.271,0.439],[-76.311,0.448],[-76.388,0.405],[-76.427,0.261],[-76.495,0.235],[-76.729,0.272],[-76.768,0.242],[-76.829,0.248],[-77.114,0.355],[-77.396,0.394],[-77.468,0.637],[-77.649,0.724],[-77.703,0.838],[-77.83,0.825],[-78.312,1.046],[-78.512,1.199],[-78.682,1.283],[-78.86,1.455],[-78.888,1.524],[-79.025,1.624],[-78.958,1.752],[-78.793,1.849],[-78.577,1.774],[-78.55,1.924],[-78.629,2.056],[-78.592,2.357],[-78.535,2.424],[-78.417,2.483],[-78.343,2.461],[-78.296,2.51],[-78.12,2.488],[-78.067,2.509],[-77.932,2.629],[-77.875,2.726],[-77.814,2.716],[-77.67,2.879],[-77.694,3.04],[-77.559,3.076],[-77.417,3.342],[-77.357,3.349],[-77.324,3.475],[-77.077,3.913],[-77.167,3.862],[-77.264,3.893],[-77.248,4.041],[-77.278,4.058],[-77.358,3.945],[-77.427,4.06],[-77.409,4.248],[-77.521,4.213],[-77.516,4.256],[-77.354,4.398],[-77.286,4.722],[-77.339,4.839],[-77.373,5.324],[-77.402,5.416],[-77.534,5.537],[-77.325,5.676],[-77.249,5.78],[-77.345,5.995],[-77.469,6.177],[-77.473,6.286],[-77.398,6.275],[-77.369,6.576],[-77.439,6.69],[-77.526,6.693],[-77.804,7.137],[-77.901,7.229],[-77.828,7.443],[-77.765,7.484],[-77.744,7.537],[-77.762,7.699],[-77.706,7.691],[-77.587,7.543],[-77.538,7.566],[-77.351,7.706],[-77.346,7.837],[-77.196,7.972],[-77.407,8.427],[-77.479,8.498],[-77.393,8.645],[-77.344,8.637],[-77.262,8.494],[-77.13,8.401],[-76.936,8.147],[-76.852,8.09],[-76.912,8.033],[-76.925,7.973],[-76.897,7.939],[-76.787,7.932],[-76.742,8.002],[-76.772,8.311],[-76.819,8.465],[-76.92,8.574],[-76.888,8.62],[-76.689,8.695],[-76.277,8.989],[-76.135,9.266],[-76.027,9.366],[-75.905,9.431],[-75.756,9.416],[-75.639,9.45],[-75.604,9.538],[-75.68,9.73],[-75.593,9.993],[-75.596,10.126],[-75.539,10.205],[-75.558,10.236],[-75.708,10.143],[-75.554,10.328],[-75.446,10.611],[-74.845,11.11],[-74.454,10.989],[-74.33,10.997],[-74.492,10.934],[-74.516,10.863],[-74.46,10.787],[-74.401,10.765],[-74.35,10.814],[-74.219,11.105],[-74.2,11.266],[-74.143,11.321],[-74.059,11.341],[-73.677,11.271],[-73.313,11.296],[-72.722,11.712],[-72.275,11.889],[-72.165,12.06],[-72.136,12.189],[-72.055,12.238],[-71.97,12.238],[-71.919,12.309],[-71.715,12.42],[-71.494,12.432],[-71.262,12.335],[-71.155,12.164],[-71.137,12.046],[-71.32,11.862]]],[[[-78.114,2.542],[-78.141,2.52],[-78.192,2.559],[-78.21,2.609],[-78.178,2.646],[-78.138,2.634],[-78.114,2.542]]]]},"properties":{"name":"Colombia","name_pt":"Colômbia","iso":"CO"}},{"type":"Feature","geometry":{"type":"MultiPolygon","coordinates":[[[[-66.876,1.223],[-66.347,0.767],[-66.06,0.785],[-65.681,0.983],[-65.566,0.926],[-65.523,0.843],[-65.556,0.688],[-65.473,0.691],[-65.361,0.869],[-65.104,1.108],[-64.818,1.257],[-64.732,1.253],[-64.486,1.453],[-64.304,1.455],[-64.205,1.529],[-64.115,1.619],[-64.008,1.932],[-63.433,2.156],[-63.394,2.223],[-63.389,2.412],[-63.924,2.452],[-64.047,2.502],[-64.009,2.672],[-64.038,2.802],[-64.219,3.205],[-64.221,3.587],[-64.669,4.012],[-64.818,4.232],[-64.789,4.276],[-64.722,4.274],[-64.576,4.14],[-64.192,4.127],[-64.021,3.929],[-63.653,3.941],[-63.527,3.894],[-63.339,3.944],[-62.969,3.594],[-62.857,3.593],[-62.765,3.673],[-62.712,4.018],[-62.61,4.042],[-62.411,4.157],[-62.153,4.098],[-61.821,4.197],[-61.554,4.288],[-61.479,4.402],[-61.368,4.433],[-61.28,4.517],[-61.102,4.505],[-61.003,4.535],[-60.906,4.687],[-60.742,4.774],[-60.628,4.893],[-60.604,4.995],[-60.635,5.082],[-60.672,5.164],[-60.742,5.202],[-60.651,5.221],[-60.46,5.188],[-60.335,5.199],[-60.242,5.258],[-60.142,5.239],[-60.078,5.144],[-59.991,5.083],[-60.032,4.741],[-60.149,4.533],[-59.833,4.476],[-59.703,4.381],[-59.739,4.227],[-59.551,3.934],[-59.679,3.7],[-59.854,3.587],[-59.831,3.349],[-59.972,2.99],[-59.994,2.69],[-59.89,2.363],[-59.755,2.274],[-59.756,1.901],[-59.669,1.842],[-59.667,1.746],[-59.536,1.7],[-59.231,1.376],[-58.969,1.305],[-58.862,1.204],[-58.787,1.208],[-58.685,1.281],[-58.512,1.285],[-58.487,1.348],[-58.506,1.439],[-58.396,1.482],[-58.341,1.588],[-58.142,1.517],[-58.035,1.52],[-57.983,1.648],[-57.796,1.7],[-57.594,1.704],[-57.367,1.94],[-57.119,2.014],[-57.01,1.921],[-56.837,1.881],[-56.616,1.923],[-56.564,1.907],[-56.483,1.942],[-56.02,1.842],[-55.963,1.857],[-55.93,1.887],[-55.915,2.04],[-56.074,2.237],[-56.138,2.259],[-56.129,2.3],[-56.02,2.393],[-55.994,2.498],[-55.957,2.52],[-55.731,2.406],[-55.385,2.441],[-55.344,2.489],[-55.188,2.548],[-55.07,2.548],[-54.979,2.598],[-54.876,2.45],[-54.722,2.442],[-54.662,2.328],[-54.55,2.293],[-54.433,2.208],[-54.13,2.121],[-53.768,2.355],[-53.735,2.309],[-53.509,2.253],[-53.334,2.34],[-53.23,2.205],[-52.965,2.184],[-52.653,2.426],[-52.559,2.573],[-52.555,2.648],[-52.418,2.904],[-52.328,3.182],[-52.163,3.365],[-51.991,3.702],[-51.827,3.87],[-51.767,3.993],[-51.653,4.061],[-51.558,4.234],[-51.547,4.311],[-51.462,4.314],[-51.327,4.225],[-51.22,4.094],[-51.076,3.672],[-51.052,3.282],[-50.994,3.078],[-50.679,2.21],[-50.714,2.134],[-50.609,2.104],[-50.576,1.999],[-50.459,1.83],[-50.188,1.786],[-49.957,1.66],[-49.882,1.42],[-49.899,1.163],[-50.294,0.836],[-50.755,0.223],[-50.816,0.173],[-50.967,0.13],[-51.102,-0.031],[-51.283,-0.085],[-51.404,-0.393],[-51.703,-0.762],[-51.721,-1.018],[-51.922,-1.181],[-51.934,-1.32],[-51.981,-1.368],[-52.02,-1.399],[-52.229,-1.363],[-52.664,-1.552],[-52.31,-1.56],[-52.197,-1.64],[-51.948,-1.587],[-51.646,-1.394],[-51.297,-1.224],[-50.895,-0.938],[-50.838,-1.039],[-50.918,-1.115],[-50.845,-1.226],[-50.786,-1.49],[-50.679,-1.644],[-50.69,-1.762],[-50.403,-2.016],[-50.117,-1.858],[-49.999,-1.832],[-49.72,-1.926],[-49.314,-1.732],[-49.507,-2.28],[-49.553,-2.52],[-49.637,-2.657],[-49.524,-2.597],[-49.458,-2.505],[-49.211,-1.917],[-48.991,-1.83],[-48.71,-1.488],[-48.6,-1.489],[-48.463,-1.614],[-48.446,-1.52],[-48.35,-1.482],[-48.451,-1.436],[-48.468,-1.394],[-48.478,-1.324],[-48.409,-1.229],[-48.45,-1.146],[-48.306,-1.04],[-48.318,-0.961],[-48.202,-0.828],[-48.128,-0.795],[-48.115,-0.738],[-48.033,-0.705],[-47.961,-0.77],[-47.808,-0.663],[-47.687,-0.725],[-47.557,-0.67],[-47.419,-0.766],[-47.46,-0.681],[-47.439,-0.648],[-47.398,-0.627],[-47.269,-0.645],[-47.127,-0.745],[-46.944,-0.743],[-46.894,-0.78],[-46.811,-0.78],[-46.617,-0.971],[-46.422,-1.03],[-46.219,-1.031],[-46.215,-1.1],[-46.045,-1.103],[-45.972,-1.187],[-45.779,-1.251],[-45.645,-1.348],[-45.557,-1.331],[-45.459,-1.356],[-45.353,-1.567],[-45.329,-1.717],[-45.282,-1.697],[-45.182,-1.507],[-45.076,-1.466],[-44.79,-1.725],[-44.721,-1.733],[-44.779,-1.799],[-44.651,-1.746],[-44.547,-1.946],[-44.538,-2.053],[-44.659,-2.228],[-44.756,-2.266],[-44.662,-2.373],[-44.579,-2.23],[-44.435,-2.168],[-44.382,-2.366],[-44.52,-2.405],[-44.521,-2.481],[-44.589,-2.573],[-44.723,-3.205],[-44.438,-2.944],[-44.308,-2.535],[-44.229,-2.471],[-44.106,-2.493],[-44.113,-2.599],[-44.225,-2.755],[-44.193,-2.81],[-43.933,-2.583],[-43.864,-2.595],[-43.729,-2.518],[-43.455,-2.502],[-43.435,-2.414],[-43.38,-2.376],[-42.937,-2.465],[-42.676,-2.59],[-42.594,-2.661],[-42.25,-2.792],[-42,-2.806],[-41.876,-2.747],[-41.722,-2.809],[-41.64,-2.879],[-41.48,-2.917],[-41.318,-2.936],[-41.195,-2.886],[-40.876,-2.87],[-40.475,-2.796],[-39.965,-2.862],[-39.014,-3.39],[-38.686,-3.654],[-38.476,-3.717],[-38.049,-4.216],[-37.796,-4.404],[-37.626,-4.592],[-37.301,-4.713],[-37.175,-4.912],[-36.955,-4.937],[-36.747,-5.051],[-36.591,-5.098],[-36.162,-5.094],[-35.98,-5.054],[-35.549,-5.129],[-35.393,-5.251],[-35.235,-5.567],[-35.095,-6.185],[-34.988,-6.394],[-34.93,-6.785],[-34.876,-7.003],[-34.834,-7.024],[-34.805,-7.288],[-34.879,-7.747],[-34.835,-7.971],[-34.967,-8.408],[-35.158,-8.931],[-35.341,-9.231],[-35.597,-9.541],[-35.764,-9.703],[-35.83,-9.719],[-35.891,-9.687],[-35.848,-9.772],[-35.885,-9.848],[-36.055,-10.076],[-36.224,-10.225],[-36.398,-10.484],[-36.768,-10.672],[-36.938,-10.82],[-37.093,-11.055],[-37.125,-11.085],[-37.183,-11.068],[-37.181,-11.188],[-37.356,-11.404],[-37.322,-11.215],[-37.359,-11.253],[-37.438,-11.394],[-37.412,-11.497],[-37.469,-11.654],[-37.689,-12.1],[-38.019,-12.591],[-38.24,-12.844],[-38.402,-12.966],[-38.499,-12.957],[-38.525,-12.762],[-38.691,-12.624],[-38.744,-12.749],[-38.852,-12.79],[-38.784,-12.844],[-38.764,-12.907],[-38.833,-13.033],[-38.835,-13.147],[-39.031,-13.365],[-39.089,-13.588],[-39.035,-13.559],[-38.989,-13.615],[-39.041,-13.758],[-39.048,-14.044],[-39.008,-14.101],[-38.967,-14.003],[-38.942,-14.031],[-39.06,-14.655],[-38.996,-15.254],[-38.881,-15.864],[-39.063,-16.504],[-39.203,-17.178],[-39.215,-17.316],[-39.154,-17.704],[-39.278,-17.849],[-39.487,-17.99],[-39.651,-18.252],[-39.74,-18.64],[-39.7,-19.278],[-39.783,-19.572],[-39.845,-19.649],[-40.001,-19.742],[-40.142,-19.968],[-40.203,-20.206],[-40.299,-20.293],[-40.319,-20.426],[-40.396,-20.569],[-40.597,-20.784],[-40.789,-20.906],[-40.829,-21.031],[-40.955,-21.238],[-41.047,-21.506],[-41,-21.999],[-41.123,-22.084],[-41.706,-22.31],[-41.98,-22.581],[-41.986,-22.736],[-41.941,-22.788],[-42.042,-22.947],[-42.958,-22.967],[-43.081,-22.903],[-43.101,-22.85],[-43.065,-22.771],[-43.086,-22.723],[-43.154,-22.725],[-43.229,-22.748],[-43.242,-22.795],[-43.194,-22.939],[-43.224,-22.991],[-43.899,-23.101],[-43.974,-23.057],[-43.676,-23.009],[-43.703,-22.966],[-43.866,-22.911],[-44.047,-22.945],[-44.148,-23.011],[-44.368,-23.005],[-44.637,-23.055],[-44.681,-23.107],[-44.674,-23.207],[-44.57,-23.274],[-44.667,-23.335],[-44.952,-23.381],[-45.215,-23.576],[-45.325,-23.6],[-45.423,-23.685],[-45.464,-23.803],[-45.665,-23.765],[-45.972,-23.796],[-46.867,-24.236],[-47.137,-24.493],[-47.877,-24.997],[-47.989,-25.036],[-47.908,-25.068],[-47.929,-25.168],[-48.203,-25.417],[-48.242,-25.403],[-48.186,-25.31],[-48.402,-25.272],[-48.458,-25.311],[-48.428,-25.403],[-48.476,-25.443],[-48.644,-25.437],[-48.732,-25.369],[-48.692,-25.492],[-48.507,-25.521],[-48.43,-25.55],[-48.401,-25.597],[-48.545,-25.816],[-48.666,-25.844],[-48.679,-25.875],[-48.613,-25.875],[-48.576,-25.935],[-48.619,-26.179],[-48.748,-26.269],[-48.652,-26.406],[-48.678,-26.703],[-48.554,-27.196],[-48.596,-27.264],[-48.572,-27.373],[-48.643,-27.558],[-48.606,-27.825],[-48.621,-28.076],[-48.693,-28.31],[-48.797,-28.443],[-48.8,-28.575],[-49.271,-28.871],[-49.5,-29.075],[-49.746,-29.363],[-50.033,-29.801],[-50.3,-30.426],[-50.62,-30.898],[-50.921,-31.258],[-51.152,-31.48],[-51.798,-31.9],[-52.039,-32.115],[-52.069,-32.063],[-52.043,-31.978],[-52.063,-31.83],[-51.995,-31.815],[-51.893,-31.868],[-51.803,-31.797],[-51.681,-31.775],[-51.446,-31.557],[-51.272,-31.477],[-51.174,-31.34],[-51.161,-31.119],[-51.106,-31.081],[-50.98,-31.094],[-50.941,-30.904],[-50.77,-30.813],[-50.689,-30.704],[-50.716,-30.426],[-50.685,-30.413],[-50.615,-30.457],[-50.582,-30.439],[-50.547,-30.317],[-50.564,-30.254],[-50.646,-30.237],[-50.932,-30.374],[-51.025,-30.369],[-51.04,-30.261],[-51.179,-30.211],[-51.25,-30.06],[-51.298,-30.035],[-51.282,-30.244],[-51.157,-30.364],[-51.247,-30.468],[-51.288,-30.591],[-51.283,-30.752],[-51.359,-30.675],[-51.376,-30.847],[-51.459,-30.913],[-51.485,-30.978],[-51.464,-31.053],[-51.506,-31.104],[-51.972,-31.384],[-52.027,-31.599],[-52.12,-31.695],[-52.194,-31.886],[-52.167,-32.088],[-52.127,-32.168],[-52.342,-32.44],[-52.508,-32.875],[-52.652,-33.138],[-52.921,-33.402],[-53.371,-33.742],[-53.531,-33.655],[-53.531,-33.171],[-53.483,-33.069],[-53.126,-32.737],[-53.231,-32.625],[-53.363,-32.581],[-53.602,-32.403],[-53.762,-32.057],[-53.921,-31.952],[-54.221,-31.855],[-54.37,-31.745],[-54.588,-31.485],[-54.896,-31.391],[-55.036,-31.279],[-55.091,-31.314],[-55.174,-31.28],[-55.255,-31.226],[-55.366,-31.046],[-55.603,-30.851],[-55.808,-31.037],[-56.005,-31.079],[-55.999,-30.837],[-56.045,-30.778],[-56.176,-30.628],[-56.833,-30.107],[-57.033,-30.11],[-57.121,-30.144],[-57.214,-30.283],[-57.552,-30.261],[-57.609,-30.188],[-57.405,-30.034],[-57.225,-29.782],[-56.939,-29.595],[-56.672,-29.287],[-56.636,-29.203],[-56.393,-28.997],[-56.226,-28.737],[-56.034,-28.581],[-55.985,-28.489],[-55.904,-28.443],[-55.891,-28.37],[-55.687,-28.382],[-55.692,-28.303],[-55.746,-28.255],[-55.725,-28.204],[-55.477,-28.089],[-55.346,-27.956],[-55.244,-27.899],[-55.102,-27.867],[-55.04,-27.768],[-54.91,-27.709],[-54.829,-27.551],[-54.666,-27.527],[-54.555,-27.454],[-54.327,-27.424],[-54.156,-27.254],[-54.114,-27.275],[-53.838,-27.121],[-53.717,-26.883],[-53.753,-26.749],[-53.671,-26.225],[-53.823,-25.96],[-53.891,-25.669],[-53.955,-25.648],[-54.012,-25.578],[-54.085,-25.572],[-54.155,-25.523],[-54.444,-25.625],[-54.538,-25.576],[-54.616,-25.576],[-54.611,-25.433],[-54.436,-25.121],[-54.454,-25.065],[-54.281,-24.306],[-54.318,-24.128],[-54.242,-24.047],[-54.44,-23.902],[-54.625,-23.813],[-54.983,-23.975],[-55.194,-24.017],[-55.366,-23.991],[-55.416,-23.951],[-55.459,-23.687],[-55.538,-23.581],[-55.518,-23.416],[-55.555,-23.32],[-55.561,-23.154],[-55.651,-22.886],[-55.618,-22.671],[-55.704,-22.592],[-55.747,-22.513],[-55.753,-22.41],[-55.8,-22.354],[-55.849,-22.308],[-56.246,-22.265],[-56.352,-22.179],[-56.395,-22.093],[-56.448,-22.076],[-56.524,-22.103],[-56.633,-22.235],[-56.937,-22.271],[-57.238,-22.195],[-57.331,-22.215],[-57.569,-22.182],[-57.721,-22.099],[-57.88,-22.136],[-57.956,-22.109],[-57.986,-22.046],[-57.933,-21.911],[-57.949,-21.851],[-57.916,-21.699],[-57.946,-21.494],[-57.873,-21.355],[-57.893,-21.302],[-57.827,-21.134],[-57.83,-20.998],[-57.9,-20.873],[-57.915,-20.69],[-57.979,-20.657],[-58.002,-20.465],[-58.125,-20.293],[-58.16,-20.165],[-58.094,-20.151],[-58.021,-20.055],[-57.888,-20.02],[-57.861,-19.98],[-58.131,-19.745],[-57.8,-19.081],[-57.717,-19.044],[-57.731,-18.917],[-57.783,-18.914],[-57.574,-18.279],[-57.496,-18.215],[-57.586,-18.122],[-57.832,-17.512],[-57.991,-17.513],[-58.396,-17.234],[-58.478,-16.701],[-58.35,-16.491],[-58.346,-16.284],[-58.538,-16.328],[-60.176,-16.269],[-60.242,-15.48],[-60.583,-15.098],[-60.273,-15.089],[-60.299,-14.619],[-60.475,-14.185],[-60.405,-14.019],[-60.507,-13.79],[-61.077,-13.49],[-61.512,-13.541],[-61.79,-13.526],[-62.095,-13.242],[-62.118,-13.16],[-62.353,-13.132],[-62.687,-12.994],[-62.765,-12.997],[-63.015,-12.806],[-63.067,-12.669],[-63.117,-12.652],[-63.25,-12.708],[-63.347,-12.68],[-63.689,-12.478],[-63.788,-12.469],[-63.939,-12.53],[-64.421,-12.44],[-64.513,-12.251],[-64.83,-12.03],[-64.993,-11.975],[-65.09,-11.741],[-65.186,-11.75],[-65.175,-11.647],[-65.322,-11.439],[-65.342,-11.315],[-65.39,-11.246],[-65.372,-11.11],[-65.324,-11.025],[-65.334,-10.893],[-65.447,-10.507],[-65.313,-10.253],[-65.299,-10.147],[-65.325,-10.027],[-65.309,-9.873],[-65.396,-9.712],[-65.492,-9.732],[-65.559,-9.797],[-65.637,-9.809],[-65.707,-9.768],[-65.925,-9.785],[-66.575,-9.9],[-66.73,-9.975],[-67.112,-10.269],[-67.417,-10.39],[-67.582,-10.506],[-67.722,-10.683],[-67.835,-10.663],[-68.072,-10.703],[-68.311,-10.975],[-68.623,-11.109],[-68.727,-11.122],[-68.848,-11.011],[-69.229,-10.956],[-69.96,-10.93],[-70.22,-11.048],[-70.342,-11.067],[-70.451,-11.025],[-70.533,-10.947],[-70.642,-11.01],[-70.637,-9.824],[-70.567,-9.705],[-70.592,-9.543],[-70.541,-9.438],[-70.637,-9.478],[-71.238,-9.966],[-71.608,-10.006],[-72.182,-10.004],[-72.173,-9.844],[-72.26,-9.774],[-72.318,-9.557],[-72.379,-9.51],[-72.814,-9.41],[-73.209,-9.411],[-72.97,-9.12],[-72.974,-8.993],[-73.203,-8.719],[-73.302,-8.654],[-73.357,-8.567],[-73.36,-8.479],[-73.549,-8.346],[-73.645,-8.073],[-73.776,-7.936],[-73.715,-7.829],[-73.72,-7.783],[-73.822,-7.739],[-74.002,-7.556],[-73.958,-7.507],[-73.964,-7.379],[-73.72,-7.309],[-73.805,-7.08],[-73.758,-6.906],[-73.5,-6.679],[-73.325,-6.575],[-73.24,-6.564],[-73.137,-6.466],[-73.135,-6.344],[-73.236,-6.098],[-72.98,-5.635],[-72.887,-5.123],[-72.699,-5.067],[-72.353,-4.786],[-71.845,-4.504],[-71.521,-4.47],[-70.974,-4.35],[-70.8,-4.173],[-70.405,-4.15],[-70.239,-4.301],[-70.129,-4.287],[-70.053,-4.333],[-69.972,-4.301],[-69.4,-1.195],[-69.449,-1.092],[-69.449,-0.999],[-69.544,-0.917],[-69.612,-0.763],[-69.592,-0.639],[-69.634,-0.509],[-69.923,-0.317],[-70.071,-0.139],[-70.054,0.579],[-69.807,0.607],[-69.472,0.73],[-69.283,0.627],[-69.153,0.659],[-69.177,0.713],[-69.163,0.864],[-69.312,1.05],[-69.852,1.06],[-69.849,1.709],[-69.543,1.773],[-69.32,1.721],[-68.177,1.72],[-68.256,1.846],[-68.194,1.987],[-68.13,1.956],[-68.033,1.788],[-67.936,1.748],[-67.815,1.79],[-67.556,2.073],[-67.4,2.117],[-67.352,2.086],[-67.119,1.704],[-67.09,1.616],[-67.082,1.185],[-66.876,1.223]]],[[[-49.629,-0.229],[-49.403,-0.215],[-49.314,-0.168],[-49.117,-0.164],[-48.588,-0.232],[-48.393,-0.297],[-48.38,-0.353],[-48.497,-0.665],[-48.567,-0.684],[-48.54,-0.801],[-48.571,-0.893],[-48.705,-1.107],[-48.84,-1.227],[-48.804,-1.327],[-48.834,-1.39],[-48.929,-1.482],[-49.038,-1.514],[-49.087,-1.505],[-49.173,-1.413],[-49.234,-1.6],[-49.345,-1.595],[-49.507,-1.512],[-49.526,-1.63],[-49.588,-1.712],[-49.805,-1.79],[-50.066,-1.704],[-50.109,-1.748],[-50.508,-1.788],[-50.602,-1.698],[-50.76,-1.24],[-50.729,-1.127],[-50.596,-1.147],[-50.577,-1.103],[-50.593,-1.073],[-50.71,-1.078],[-50.783,-1.01],[-50.796,-0.906],[-50.771,-0.645],[-50.72,-0.583],[-50.694,-0.364],[-50.646,-0.273],[-50.462,-0.157],[-50.248,-0.116],[-49.629,-0.229]]],[[[-44.129,-23.142],[-44.098,-23.169],[-44.32,-23.212],[-44.36,-23.172],[-44.243,-23.074],[-44.129,-23.142]]],[[[-45.26,-23.889],[-45.261,-23.941],[-45.303,-23.915],[-45.413,-23.935],[-45.451,-23.896],[-45.302,-23.728],[-45.233,-23.825],[-45.26,-23.889]]],[[[-44.499,-2.94],[-44.598,-3.038],[-44.569,-2.785],[-44.481,-2.718],[-44.499,-2.94]]],[[[-38.744,-13.097],[-38.783,-13.119],[-38.787,-13.055],[-38.685,-12.975],[-38.668,-12.88],[-38.615,-12.924],[-38.601,-12.993],[-38.744,-13.097]]],[[[-38.904,-13.473],[-38.938,-13.532],[-38.978,-13.524],[-39.022,-13.446],[-38.98,-13.398],[-38.907,-13.401],[-38.904,-13.473]]],[[[-44.883,-1.318],[-44.968,-1.391],[-45.021,-1.372],[-44.979,-1.267],[-44.888,-1.277],[-44.883,-1.318]]],[[[-49.738,0.268],[-49.697,0.216],[-49.839,0.007],[-49.917,-0.023],[-50.002,-0.029],[-50.113,0.033],[-50.339,0.043],[-50.345,0.134],[-50.273,0.232],[-50.128,0.227],[-49.879,0.305],[-49.738,0.268]]],[[[-50.299,1.939],[-50.399,1.893],[-50.456,1.91],[-50.509,2.03],[-50.491,2.129],[-50.419,2.161],[-50.342,2.142],[-50.299,1.939]]],[[[-50.653,-0.132],[-50.926,-0.327],[-51.038,-0.226],[-50.995,-0.105],[-50.842,-0.05],[-50.667,-0.058],[-50.653,-0.132]]],[[[-49.444,-0.112],[-49.709,-0.144],[-49.83,-0.094],[-49.712,0.015],[-49.503,0.084],[-49.4,0.057],[-49.372,0.001],[-49.381,-0.055],[-49.444,-0.112]]],[[[-50.426,0.139],[-50.444,-0.008],[-50.624,0.054],[-50.61,0.205],[-50.452,0.327],[-50.425,0.558],[-50.373,0.591],[-50.351,0.582],[-50.332,0.259],[-50.426,0.139]]],[[[-50.153,0.393],[-50.261,0.359],[-50.282,0.517],[-50.251,0.585],[-50.059,0.638],[-50.04,0.523],[-50.153,0.393]]],[[[-51.833,-1.434],[-51.938,-1.453],[-51.802,-1.203],[-51.68,-1.086],[-51.678,-0.855],[-51.546,-0.65],[-51.424,-0.566],[-51.254,-0.541],[-51.161,-0.667],[-51.276,-1.022],[-51.31,-1.024],[-51.465,-1.211],[-51.638,-1.342],[-51.833,-1.434]]]]},"properties":{"name":"Brazil","name_pt":"Brasil","iso":"BR"}},{"type":"Feature","geometry":{"type":"Polygon","coordinates":[[[-69.511,-17.506],[-69.522,-17.389],[-69.646,-17.249],[-69.625,-17.2],[-69.438,-17.088],[-69.2,-16.768],[-69.021,-16.642],[-69.033,-16.476],[-68.843,-16.338],[-68.913,-16.262],[-69.134,-16.222],[-69.218,-16.149],[-69.421,-15.641],[-69.302,-15.399],[-69.172,-15.237],[-69.375,-14.963],[-69.359,-14.795],[-69.276,-14.746],[-69.235,-14.597],[-69.013,-14.377],[-69.004,-14.265],[-68.871,-14.17],[-68.974,-13.976],[-69.074,-13.683],[-68.983,-13.496],[-68.979,-12.88],[-68.868,-12.755],[-68.759,-12.687],[-68.763,-12.608],[-68.685,-12.502],[-69.579,-10.952],[-69.229,-10.956],[-68.848,-11.011],[-68.727,-11.122],[-68.623,-11.109],[-68.311,-10.975],[-68.072,-10.703],[-67.835,-10.663],[-67.722,-10.683],[-67.582,-10.506],[-67.417,-10.39],[-67.112,-10.269],[-66.73,-9.975],[-66.575,-9.9],[-65.925,-9.785],[-65.707,-9.768],[-65.637,-9.809],[-65.559,-9.797],[-65.492,-9.732],[-65.396,-9.712],[-65.309,-9.873],[-65.325,-10.027],[-65.299,-10.147],[-65.313,-10.253],[-65.447,-10.507],[-65.334,-10.893],[-65.324,-11.025],[-65.372,-11.11],[-65.39,-11.246],[-65.342,-11.315],[-65.322,-11.439],[-65.175,-11.647],[-65.186,-11.75],[-65.09,-11.741],[-64.993,-11.975],[-64.83,-12.03],[-64.513,-12.251],[-64.421,-12.44],[-63.939,-12.53],[-63.788,-12.469],[-63.689,-12.478],[-63.347,-12.68],[-63.25,-12.708],[-63.117,-12.652],[-63.067,-12.669],[-63.015,-12.806],[-62.765,-12.997],[-62.687,-12.994],[-62.353,-13.132],[-62.118,-13.16],[-62.095,-13.242],[-61.79,-13.526],[-61.512,-13.541],[-61.077,-13.49],[-60.507,-13.79],[-60.405,-14.019],[-60.475,-14.185],[-60.299,-14.619],[-60.273,-15.089],[-60.583,-15.098],[-60.242,-15.48],[-60.176,-16.269],[-58.538,-16.328],[-58.346,-16.284],[-58.35,-16.491],[-58.478,-16.701],[-58.396,-17.234],[-57.991,-17.513],[-57.832,-17.512],[-57.586,-18.122],[-57.496,-18.215],[-57.574,-18.279],[-57.783,-18.914],[-57.731,-18.917],[-57.717,-19.044],[-57.8,-19.081],[-58.131,-19.745],[-57.861,-19.98],[-57.888,-20.02],[-58.021,-20.055],[-58.094,-20.151],[-58.16,-20.165],[-58.14,-19.999],[-58.18,-19.818],[-59.091,-19.286],[-60.007,-19.298],[-61.757,-19.645],[-61.917,-20.055],[-62.276,-20.563],[-62.277,-21.066],[-62.651,-22.234],[-62.745,-22.16],[-62.843,-21.997],[-63.675,-22.004],[-63.717,-22.028],[-63.819,-22.005],[-63.922,-22.029],[-63.976,-22.073],[-64.266,-22.603],[-64.325,-22.828],[-64.606,-22.229],[-64.993,-22.11],[-65.771,-22.1],[-66.099,-21.835],[-66.22,-21.803],[-66.365,-22.114],[-66.712,-22.216],[-66.8,-22.41],[-67.034,-22.552],[-67.055,-22.651],[-67.195,-22.822],[-67.707,-22.889],[-67.794,-22.879],[-67.879,-22.823],[-67.882,-22.493],[-67.95,-22.334],[-67.988,-22.057],[-68.077,-21.983],[-68.112,-21.753],[-68.186,-21.619],[-68.197,-21.3],[-68.435,-20.948],[-68.558,-20.902],[-68.563,-20.72],[-68.484,-20.628],[-68.745,-20.459],[-68.761,-20.416],[-68.759,-20.378],[-68.689,-20.31],[-68.756,-20.091],[-68.6,-20.045],[-68.561,-19.967],[-68.578,-19.857],[-68.698,-19.721],[-68.47,-19.41],[-68.858,-19.093],[-68.968,-18.968],[-69.092,-18.282],[-69.145,-18.144],[-69.094,-18.05],[-69.313,-17.943],[-69.358,-17.772],[-69.495,-17.62],[-69.511,-17.506]]]},"properties":{"name":"Bolivia","name_pt":"Bolívia","iso":"BO"}}]}
